DELTA 2 R/B(1)          
1 20453U 90008B   26007.57482409  .00041153  00000+0  61464-3 0  9992
2 20453  35.6035 213.3985 0103895  53.3971 307.6267 15.47883849916636
COSMOS 2058             
1 20465U 90010A   26008.65143027  .00004725  00000+0  28278-3 0  9998
2 20465  82.4703 106.5604 0010094 176.9415 183.1878 15.10772477933172
SL-14 R/B               
1 20466U 90010B   26008.59077419  .00000631  00000+0  73598-4 0  9991
2 20466  82.5039 323.8295 0020905 134.6101 225.6824 14.83503870919570
SL-14 R/B               
1 20511U 90018B   26009.15830150  .00000461  00000+0  55006-4 0  9997
2 20511  82.5219 278.7404 0014990 290.2239  69.7363 14.82081064913764
HST                     
1 20580U 90037B   26008.89289380  .00006776  00000+0  22974-3 0  9999
2 20580  28.4664  87.6091 0002262 157.8382 202.2311 15.28461267764150
SL-16 R/B               
1 20625U 90046B   26009.17458123  .00000306  00000+0  18234-3 0  9991
2 20625  70.9996  62.9059 0013062  26.7571 333.4222 14.15004798839972
COSMOS 2084             
1 20663U 90055A   26009.20638913  .00004059  00000+0  29477-3 0  9994
2 20663  62.7893 178.3911 0027106 178.8248 181.2921 15.05222491927360
SL-6 R/B(2)             
1 20666U 90055D   26008.57692161  .00002773  00000+0  21782-3 0  9993
2 20666  62.7835  98.2176 0016089 325.7670  34.2390 15.03239648929158
SL-8 R/B                
1 20775U 90078B   26008.32184044  .00014733  00000+0  44933-3 0  9990
2 20775  82.9065 305.5017 0368997 216.3690 141.1944 14.86884762800324
SL-8 R/B                
1 21088U 91006B   26009.07245359  .00000004  00000+0 -10963-4 0  9994
2 21088  82.9408 214.3810 0021990 199.5132 272.3048 13.77492723755864
OKEAN-3                 
1 21397U 91039A   26008.55704534  .00003580  00000+0  25447-3 0  9993
2 21397  82.5163  35.0834 0014727 169.5246 190.6290 15.04320133855991
COSMOS 2151             
1 21422U 91042A   26008.64466566  .00003243  00000+0  25965-3 0  9997
2 21422  82.4979 141.5747 0011230 261.6226  98.3725 14.99826310854197
